NORAD_CAT_ID,OBJECT_NAME,OBJECT_TYPE,EPOCH,MEAN_MOTION,ECCENTRICITY,INCLINATION,RA_OF_ASC_NODE,ARG_OF_PERICENTER,MEAN_ANOMALY,BSTAR,MEAN_MOTION_DOT,MEAN_MOTION_DDOT,TLE_LINE0,TLE_LINE1,TLE_LINE2,SEMIMAJOR_AXIS,PERIOD,APOGEE,PERIGEE,DECAYED
53832.0,STARLINK-4747,PAYLOAD,2024-07-17 03:33:56,15.08854127,0.0001221,53.2172,119.8021,96.4747,263.6384,0.00018938,2.729e-05,0.0,0 STARLINK-4747,1 53832U 22114Q   24199.14856773  .00002729  00000-0  18938-3 0  9999,2 53832  53.2172 119.8021 0001221  96.4747 263.6384 15.08854127101632,6917.837,95.437,540.547,538.858,0.0
53832.0,STARLINK-4747,PAYLOAD,2024-07-17 11:30:53,15.08838037,0.0002268,53.217,118.314,71.8746,288.2493,0.00010689,1.413e-05,0.0,0 STARLINK-4747,1 53832U 22114Q   24199.47978544  .00001413  00000-0  10689-3 0  9990,2 53832  53.2170 118.3140 0002268  71.8746 288.2493 15.08838037101685,6917.886,95.438,541.32,538.182,0.0
53832.0,STARLINK-4747,PAYLOAD,2024-07-17 22:38:36,15.08826437,0.0001403,53.2176,116.2379,79.8926,280.2225,-4.0514e-05,-9.32e-06,0.0,0 STARLINK-4747,1 53832U 22114Q   24199.94347830 -.00000932  00000-0 -40514-4 0  9998,2 53832  53.2176 116.2379 0001403  79.8926 280.2225 15.08826437102294,6917.922,95.438,540.757,538.816,0.0
53832.0,STARLINK-4747,PAYLOAD,2024-07-18 11:21:41,15.0883361,0.0001257,53.2176,113.8544,76.8185,283.2947,-2.1047e-05,-6.23e-06,0.0,0 STARLINK-4747,1 53832U 22114Q   24200.47339483 -.00000623  00000-0 -21047-4 0  9991,2 53832  53.2176 113.8544 0001257  76.8185 283.2947 15.08833610101836,6917.9,95.438,540.635,538.895,0.0
53832.0,STARLINK-4747,PAYLOAD,2024-07-18 22:29:23,15.08831513,0.0001276,53.2176,111.7713,64.2425,295.8699,2.9505e-05,1.82e-06,0.0,0 STARLINK-4747,1 53832U 22114Q   24200.93707713  .00000182  00000-0  29505-4 0  9992,2 53832  53.2176 111.7713 0001276  64.2425 295.8699 15.08831513102441,6917.906,95.438,540.654,538.889,0.0
53832.0,STARLINK-4747,PAYLOAD,2024-07-19 03:15:31,15.08857353,0.0001202,53.2174,110.883,87.9237,272.1892,4.613e-05,4.47e-06,0.0,0 STARLINK-4747,1 53832U 22114Q   24201.13578063  .00000447  00000-0  46130-4 0  9996,2 53832  53.2174 110.8830 0001202  87.9237 272.1892 15.08857353101937,6917.827,95.436,540.524,538.861,0.0
53832.0,STARLINK-4747,PAYLOAD,2024-07-19 11:12:27,15.08845575,0.0001084,53.2177,109.3957,95.9652,264.1464,-5.9853e-05,-1.24e-05,0.0,0 STARLINK-4747,1 53832U 22114Q   24201.46698837 -.00001240  00000-0 -59853-4 0  9994,2 53832  53.2177 109.3957 0001084  95.9652 264.1464 15.08845575101985,6917.863,95.437,540.478,538.978,0.0
53832.0,STARLINK-4747,PAYLOAD,2024-07-19 22:20:10,15.08834198,0.0001406,53.2179,107.3145,83.5029,276.6123,0.00018005,2.578e-05,0.0,0 STARLINK-4747,1 53832U 22114Q   24201.93067255  .00002578  00000-0  18005-3 0  9996,2 53832  53.2179 107.3145 0001406  83.5029 276.6123 15.08834198102590,6917.898,95.438,540.736,538.79,0.0
53832.0,STARLINK-4747,PAYLOAD,2024-07-20 01:30:55,15.08854613,0.0001181,53.218,106.7167,97.7799,262.3327,0.00021582,3.15e-05,0.0,0 STARLINK-4747,1 53832U 22114Q   24202.06313791  .00003150  00000-0  21582-3 0  9991,2 53832  53.2180 106.7167 0001181  97.7799 262.3327 15.08854613102075,6917.836,95.437,540.518,538.884,0.0
53832.0,STARLINK-4747,PAYLOAD,2024-07-20 11:03:15,15.08835728,0.0001283,53.2187,104.9323,94.7801,265.3337,7.9188e-05,9.72e-06,0.0,0 STARLINK-4747,1 53832U 22114Q   24202.46059382  .00000972  00000-0  79188-4 0  9993,2 53832  53.2187 104.9323 0001283  94.7801 265.3337 15.08835728102137,6917.893,95.438,540.646,538.871,0.0
53832.0,STARLINK-4747,PAYLOAD,2024-07-20 22:10:57,15.08830817,0.0001276,53.2184,102.8518,97.4516,262.6621,7.2578e-05,8.67e-06,0.0,0 STARLINK-4747,1 53832U 22114Q   24202.92427992  .00000867  00000-0  72578-4 0  9999,2 53832  53.2184 102.8518 0001276  97.4516 262.6621 15.08830817102749,6917.908,95.438,540.656,538.891,0.0
53832.0,STARLINK-4747,PAYLOAD,2024-07-21 02:57:07,15.08836513,0.0001313,53.2184,101.9614,93.5761,266.5381,-9.3973e-05,-1.783e-05,0.0,0 STARLINK-4747,1 53832U 22114Q   24203.12300247 -.00001783  00000-0 -93973-4 0  9997,2 53832  53.2184 101.9614 0001313  93.5761 266.5381 15.08836513102236,6917.891,95.438,540.664,538.848,0.0
53832.0,STARLINK-4747,PAYLOAD,2024-07-21 20:26:21,15.08841962,0.0001171,53.2178,98.6929,94.5341,265.5785,6.1384e-05,6.89e-06,0.0,0 STARLINK-4747,1 53832U 22114Q   24203.85163549  .00000689  00000-0  61384-4 0  9992,2 53832  53.2178  98.6929 0001171  94.5341 265.5785 15.08841962102340,6917.874,95.437,540.549,538.929,0.0
53832.0,STARLINK-4747,PAYLOAD,2024-07-21 22:01:44,15.08844229,0.0001363,53.2183,98.3985,77.9637,282.1508,8.6856e-05,1.095e-05,0.0,0 STARLINK-4747,1 53832U 22114Q   24203.91787451  .00001095  00000-0  86856-4 0  9996,2 53832  53.2183  98.3985 0001363  77.9637 282.1508 15.08844229102898,6917.867,95.437,540.675,538.79,0.0
53832.0,STARLINK-4747,PAYLOAD,2024-07-22 02:47:52,15.0886594,0.0001211,53.2177,97.5025,111.8843,248.2278,0.00010374,1.365e-05,0.0,0 STARLINK-4747,1 53832U 22114Q   24204.11657790  .00001365  00000-0  10374-3 0  9992,2 53832  53.2177  97.5025 0001211 111.8843 248.2278 15.08865940102380,6917.801,95.436,540.504,538.828,0.0
53832.0,STARLINK-4747,PAYLOAD,2024-07-22 17:06:21,15.0883721,0.0001292,53.2175,94.8271,87.5033,272.6107,0.00016654,2.363e-05,0.0,0 STARLINK-4747,1 53832U 22114Q   24204.71275420  .00002363  00000-0  16654-3 0  9990,2 53832  53.2175  94.8271 0001292  87.5033 272.6107 15.08837210102471,6917.889,95.438,540.648,538.86,0.0
53832.0,STARLINK-4747,PAYLOAD,2024-07-22 21:52:31,15.08840757,0.000129,53.2178,93.9353,86.8656,273.2484,0.00019026,2.741e-05,0.0,0 STARLINK-4747,1 53832U 22114Q   24204.91147241  .00002741  00000-0  19026-3 0  9997,2 53832  53.2178  93.9353 0001290  86.8656 273.2484 15.08840757103045,6917.878,95.438,540.635,538.851,0.0
53832.0,STARLINK-4747,PAYLOAD,2024-07-22 23:27:54,15.08846399,0.0001302,53.2185,93.64,85.028,275.086,0.00016551,2.348e-05,0.0,0 STARLINK-4747,1 53832U 22114Q   24204.97771008  .00002348  00000-0  16551-3 0  9990,2 53832  53.2185  93.6400 0001302  85.0280 275.0860 15.08846399102518,6917.861,95.437,540.627,538.825,0.0
53832.0,STARLINK-4747,PAYLOAD,2024-07-23 16:57:09,15.08843408,0.0001117,53.217,90.3655,109.0041,251.1072,-0.00011847,-2.173e-05,0.0,0 STARLINK-4747,1 53832U 22114Q   24205.70636029 -.00002173  00000-0 -11847-3 0  9996,2 53832  53.2170  90.3655 0001117 109.0041 251.1072 15.08843408102624,6917.87,95.437,540.508,538.962,0.0
53832.0,STARLINK-4747,PAYLOAD,2024-07-24 15:12:33,15.08836433,0.0001249,53.2175,86.2019,110.5741,249.5385,3.9086e-05,3.34e-06,0.0,0 STARLINK-4747,1 53832U 22114Q   24206.63372136  .00000334  00000-0  39086-4 0  9996,2 53832  53.2175  86.2019 0001249 110.5741 249.5385 15.08836433103301,6917.891,95.438,540.62,538.892,0.0
53832.0,STARLINK-4747,PAYLOAD,2024-07-25 02:20:14,15.08857411,0.000148,53.2163,84.1221,102.5356,257.5801,-3.9887e-05,-9.23e-06,0.0,0 STARLINK-4747,1 53832U 22114Q   24207.09738850 -.00000923  00000-0 -39887-4 0  9991,2 53832  53.2163  84.1221 0001480 102.5356 257.5801 15.08857411102838,6917.827,95.436,540.716,538.668,0.0
53832.0,STARLINK-4747,PAYLOAD,2024-07-26 02:11:02,15.08836693,9.88e-05,53.217,79.6602,101.9575,258.1528,0.00010368,1.363e-05,0.0,0 STARLINK-4747,1 53832U 22114Q   24208.09100218  .00001363  00000-0  10368-3 0  9992,2 53832  53.2170  79.6602 0000988 101.9575 258.1528 15.08836693102984,6917.89,95.438,540.439,539.072,0.0
53832.0,STARLINK-4747,PAYLOAD,2024-07-26 08:32:35,15.08835395,0.0001024,53.2166,78.472,113.9747,246.1352,0.00017575,2.51e-05,0.0,0 STARLINK-4747,1 53832U 22114Q   24208.35596187  .00002510  00000-0  17575-3 0  9997,2 53832  53.2166  78.4720 0001024 113.9747 246.1352 15.08835395103568,6917.894,95.438,540.468,539.051,0.0
53832.0,STARLINK-4747,PAYLOAD,2024-07-26 22:51:02,15.08853546,0.0001438,53.2158,75.7948,81.1887,278.9268,0.00011722,1.579e-05,0.0,0 STARLINK-4747,1 53832U 22114Q   24208.95211043  .00001579  00000-0  11722-3 0  9990,2 53832  53.2158  75.7948 0001438  81.1887 278.9268 15.08853546103119,6917.839,95.437,540.699,538.709,0.0
53832.0,STARLINK-4747,PAYLOAD,2024-07-27 21:06:27,15.08833513,0.0001353,53.2164,71.6342,82.7079,277.4067,-5.8646e-05,-1.221e-05,0.0,0 STARLINK-4747,1 53832U 22114Q   24209.87948915 -.00001221  00000-0 -58646-4 0  9990,2 53832  53.2164  71.6342 0001353  82.7079 277.4067 15.08833513103792,6917.9,95.438,540.701,538.829,0.0
53832.0,STARLINK-4747,PAYLOAD,2024-07-27 22:41:50,15.08835512,0.000134,53.2171,71.3362,81.8308,278.2836,-5.8636e-05,-1.221e-05,0.0,0 STARLINK-4747,1 53832U 22114Q   24209.94572785 -.00001221  00000-0 -58636-4 0  9995,2 53832  53.2171  71.3362 0001340  81.8308 278.2836 15.08835512103266,6917.894,95.438,540.686,538.832,0.0
53832.0,STARLINK-4747,PAYLOAD,2024-07-28 20:57:14,15.08838912,0.0001486,53.2181,67.1724,87.7248,272.3914,0.00011556,1.552e-05,0.0,0 STARLINK-4747,1 53832U 22114Q   24210.87307897  .00001552  00000-0  11556-3 0  9993,2 53832  53.2181  67.1724 0001486  87.7248 272.3914 15.08838912103406,6917.884,95.438,540.777,538.721,0.0
53832.0,STARLINK-4747,PAYLOAD,2024-07-29 14:26:28,15.088372,0.000157,53.218,63.9014,86.2778,273.8394,9.7126e-05,1.258e-05,0.0,0 STARLINK-4747,1 53832U 22114Q   24211.60172249  .00001258  00000-0  97126-4 0  9997,2 53832  53.2180  63.9014 0001570  86.2778 273.8394 15.08837200104056,6917.889,95.438,540.84,538.668,0.0
53832.0,STARLINK-4747,PAYLOAD,2024-07-29 20:48:01,15.08840343,0.0001454,53.2184,62.7118,88.9887,271.1271,0.00011038,1.469e-05,0.0,0 STARLINK-4747,1 53832U 22114Q   24211.86668043  .00001469  00000-0  11038-3 0  9998,2 53832  53.2184  62.7118 0001454  88.9887 271.1271 15.08840343104094,6917.879,95.438,540.75,538.738,0.0
53832.0,STARLINK-4747,PAYLOAD,2024-07-29 22:23:24,15.0884185,0.0001368,53.218,62.4134,92.0462,268.0687,0.0001125,1.503e-05,0.0,0 STARLINK-4747,1 53832U 22114Q   24211.93291902  .00001503  00000-0  11250-3 0  9997,2 53832  53.2180  62.4134 0001368  92.0462 268.0687 15.08841850103565,6917.875,95.437,540.686,538.793,0.0
